{
  "type": "FeatureCollection",
  "features": [
    {
      "type": "Feature",
      "properties": {
        "norad_id": 52912,
        "name": "GAOFEN-12 03",
        "group": "resource",
        "lat": -53.562764307316286,
        "lon": 56.740754232743846,
        "alt_km": 638.708008232943,
        "timestamp": "2025-12-26T11:25:44.877159+00:00",
        "meta_object_name": "GAOFEN-12 03",
        "meta_object_id": "2022-069A",
        "meta_epoch": "2025-12-26T03:52:54.244416",
        "meta_mean_motion": 14.79640191,
        "meta_eccentricity": 0.0001784,
        "meta_inclination": 97.8475,
        "meta_ra_of_asc_node": 247.2007,
        "meta_arg_of_pericenter": 46.6607,
        "meta_mean_anomaly": 313.4753,
        "meta_ephemeris_type": 0,
        "meta_classification_type": "U",
        "meta_norad_cat_id": 52912,
        "meta_element_set_no": 999,
        "meta_rev_at_epoch": 18902,
        "meta_bstar": 0.00015036,
        "meta_mean_motion_dot": 1.077e-05,
        "meta_mean_motion_ddot": 0,
        "tle_line1": "1 52912U 22069A   25360.16173894  .00001077  00000+0  15036-3 0  9995",
        "tle_line2": "2 52912  97.8475 247.2007 0001784  46.6607 313.4753 14.79640191189020"
      },
      "geometry": {
        "type": "Point",
        "coordinates": [
          56.740754232743846,
          -53.562764307316286
        ]
      }
    },
    {
      "type": "Feature",
      "properties": {
        "norad_id": 54754,
        "name": "SWOT",
        "group": "resource",
        "lat": -68.1660974885874,
        "lon": 121.71933163741772,
        "alt_km": 900.6044422622163,
        "timestamp": "2025-12-26T11:25:44.877169+00:00",
        "meta_object_name": "SWOT",
        "meta_object_id": "2022-173A",
        "meta_epoch": "2025-12-26T03:22:13.445760",
        "meta_mean_motion": 14.00168881,
        "meta_eccentricity": 4.25e-05,
        "meta_inclination": 77.6108,
        "meta_ra_of_asc_node": 268.9009,
        "meta_arg_of_pericenter": 81.7093,
        "meta_mean_anomaly": 278.4106,
        "meta_ephemeris_type": 0,
        "meta_classification_type": "U",
        "meta_norad_cat_id": 54754,
        "meta_element_set_no": 999,
        "meta_rev_at_epoch": 15493,
        "meta_bstar": 8.9632e-05,
        "meta_mean_motion_dot": 1.3e-06,
        "meta_mean_motion_ddot": 0,
        "tle_line1": "1 54754U 22173A   25360.14043340  .00000130  00000+0  89632-4 0  9990",
        "tle_line2": "2 54754  77.6108 268.9009 0000425  81.7093 278.4106 14.00168881154936"
      },
      "geometry": {
        "type": "Point",
        "coordinates": [
          121.71933163741772,
          -68.1660974885874
        ]
      }
    },
    {
      "type": "Feature",
      "properties": {
        "norad_id": 57654,
        "name": "GAOFEN-12 04",
        "group": "resource",
        "lat": 47.87643432145609,
        "lon": -92.8216135847174,
        "alt_km": 625.1739575719985,
        "timestamp": "2025-12-26T11:25:44.877177+00:00",
        "meta_object_name": "GAOFEN-12 04",
        "meta_object_id": "2023-123A",
        "meta_epoch": "2025-12-26T04:43:09.099840",
        "meta_mean_motion": 14.79737858,
        "meta_eccentricity": 0.0001202,
        "meta_inclination": 97.9129,
        "meta_ra_of_asc_node": 275.7503,
        "meta_arg_of_pericenter": 80.5679,
        "meta_mean_anomaly": 279.5668,
        "meta_ephemeris_type": 0,
        "meta_classification_type": "U",
        "meta_norad_cat_id": 57654,
        "meta_element_set_no": 999,
        "meta_rev_at_epoch": 12704,
        "meta_bstar": 0.00018795,
        "meta_mean_motion_dot": 1.361e-05,
        "meta_mean_motion_ddot": 0,
        "tle_line1": "1 57654U 23123A   25360.19663310  .00001361  00000+0  18795-3 0  9996",
        "tle_line2": "2 57654  97.9129 275.7503 0001202  80.5679 279.5668 14.79737858127041"
      },
      "geometry": {
        "type": "Point",
        "coordinates": [
          -92.8216135847174,
          47.87643432145609
        ]
      }
    },
    {
      "type": "Feature",
      "properties": {
        "norad_id": 59065,
        "name": "PARS 1",
        "group": "resource",
        "lat": -56.15289133882032,
        "lon": 140.42809121561413,
        "alt_km": 456.3661764969056,
        "timestamp": "2025-12-26T11:25:44.877187+00:00",
        "meta_object_name": "PARS 1",
        "meta_object_id": "2024-039Q",
        "meta_epoch": "2025-12-26T04:10:19.509888",
        "meta_mean_motion": 15.41280087,
        "meta_eccentricity": 0.0011429,
        "meta_inclination": 97.4655,
        "meta_ra_of_asc_node": 331.3951,
        "meta_arg_of_pericenter": 30.9614,
        "meta_mean_anomaly": 329.2304,
        "meta_ephemeris_type": 0,
        "meta_classification_type": "U",
        "meta_norad_cat_id": 59065,
        "meta_element_set_no": 999,
        "meta_rev_at_epoch": 10195,
        "meta_bstar": 0.00029866,
        "meta_mean_motion_dot": 0.00012374,
        "meta_mean_motion_ddot": 0,
        "tle_line1": "1 59065U 24039Q   25360.17383692  .00012374  00000+0  29866-3 0  9998",
        "tle_line2": "2 59065  97.4655 331.3951 0011429  30.9614 329.2304 15.41280087101953"
      },
      "geometry": {
        "type": "Point",
        "coordinates": [
          140.42809121561413,
          -56.15289133882032
        ]
      }
    },
    {
      "type": "Feature",
      "properties": {
        "norad_id": 59371,
        "name": "RESURS-P 4",
        "group": "resource",
        "lat": -64.07186678140543,
        "lon": -38.2798438782597,
        "alt_km": 476.95971024035225,
        "timestamp": "2025-12-26T11:25:44.877196+00:00",
        "meta_object_name": "RESURS-P 4",
        "meta_object_id": "2024-061A",
        "meta_epoch": "2025-12-26T03:52:32.494944",
        "meta_mean_motion": 15.32203082,
        "meta_eccentricity": 7.99e-05,
        "meta_inclination": 97.2563,
        "meta_ra_of_asc_node": 306.2183,
        "meta_arg_of_pericenter": 87.6126,
        "meta_mean_anomaly": 272.5208,
        "meta_ephemeris_type": 0,
        "meta_classification_type": "U",
        "meta_norad_cat_id": 59371,
        "meta_element_set_no": 999,
        "meta_rev_at_epoch": 9726,
        "meta_bstar": 0.00013343,
        "meta_mean_motion_dot": 4.072e-05,
        "meta_mean_motion_ddot": 0,
        "tle_line1": "1 59371U 24061A   25360.16148721  .00004072  00000+0  13343-3 0  9993",
        "tle_line2": "2 59371  97.2563 306.2183 0000799  87.6126 272.5208 15.32203082 97263"
      },
      "geometry": {
        "type": "Point",
        "coordinates": [
          -38.2798438782597,
          -64.07186678140543
        ]
      }
    },
    {
      "type": "Feature",
      "properties": {
        "norad_id": 59625,
        "name": "LEGION 1",
        "group": "resource",
        "lat": 68.39701007559836,
        "lon": -85.51756061031321,
        "alt_km": 511.46001767170037,
        "timestamp": "2025-12-26T11:25:44.877206+00:00",
        "meta_object_name": "LEGION 1",
        "meta_object_id": "2024-081A",
        "meta_epoch": "2025-12-26T03:01:37.020288",
        "meta_mean_motion": 15.16609572,
        "meta_eccentricity": 0.0003627,
        "meta_inclination": 97.5193,
        "meta_ra_of_asc_node": 74.6502,
        "meta_arg_of_pericenter": 254.7303,
        "meta_mean_anomaly": 105.3529,
        "meta_ephemeris_type": 0,
        "meta_classification_type": "U",
        "meta_norad_cat_id": 59625,
        "meta_element_set_no": 999,
        "meta_rev_at_epoch": 9130,
        "meta_bstar": 0.00024192,
        "meta_mean_motion_dot": 4.661e-05,
        "meta_mean_motion_ddot": 0,
        "tle_line1": "1 59625U 24081A   25360.12612292  .00004661  00000+0  24192-3 0  9990",
        "tle_line2": "2 59625  97.5193  74.6502 0003627 254.7303 105.3529 15.16609572 91309"
      },
      "geometry": {
        "type": "Point",
        "coordinates": [
          -85.51756061031321,
          68.39701007559836
        ]
      }
    },
    {
      "type": "Feature",
      "properties": {
        "norad_id": 59626,
        "name": "LEGION 2",
        "group": "resource",
        "lat": -68.03189461898276,
        "lon": 94.20032394143236,
        "alt_km": 521.0760294370466,
        "timestamp": "2025-12-26T11:25:44.877216+00:00",
        "meta_object_name": "LEGION 2",
        "meta_object_id": "2024-081B",
        "meta_epoch": "2025-12-26T03:49:01.030080",
        "meta_mean_motion": 15.16623779,
        "meta_eccentricity": 0.0005822,
        "meta_inclination": 97.5196,
        "meta_ra_of_asc_node": 74.7709,
        "meta_arg_of_pericenter": 235.8541,
        "meta_mean_anomaly": 124.214,
        "meta_ephemeris_type": 0,
        "meta_classification_type": "U",
        "meta_norad_cat_id": 59626,
        "meta_element_set_no": 999,
        "meta_rev_at_epoch": 9131,
        "meta_bstar": 0.00029057,
        "meta_mean_motion_dot": 5.615e-05,
        "meta_mean_motion_ddot": 0,
        "tle_line1": "1 59626U 24081B   25360.15903970  .00005615  00000+0  29057-3 0  9995",
        "tle_line2": "2 59626  97.5196  74.7709 0005822 235.8541 124.2140 15.16623779 91311"
      },
      "geometry": {
        "type": "Point",
        "coordinates": [
          94.20032394143236,
          -68.03189461898276
        ]
      }
    }
  ]
}